STARLINK-37440          
1 69189U 26114H   26165.31709263  .00154859  00000+0  77237-3 0  9998
2 69189  53.1582 216.2184 0000978  71.9266 288.1863 15.80922591  4325
STARLINK-37282          
1 69190U 26114J   26165.23044270  .00150868  00000+0  85574-3 0  9990
2 69190  53.1583 217.1198 0001349 105.4449 254.6722 15.78100100  4303
STARLINK-37422          
1 69191U 26114K   26164.64895168  .00292068  00000+0  14269-2 0  9996
2 69191  53.1576 219.8873 0001378  50.7013 309.4132 15.80978335  4216
STARLINK-37424          
1 69192U 26114L   26165.29377996  .03319453  00000+0  15411-1 0  9993
2 69192  53.1578 216.8044 0003218   2.8266 357.2773 15.79578695  4315
STARLINK-36666          
1 69193U 26114M   26165.00002315  .00073457  00000+0  37330-3 0  9997
2 69193  53.1576 218.1310 0001063  91.0304 107.0057 15.80829294  4305
STARLINK-37355          
1 69194U 26114N   26165.28061383  .00204428  00000+0  10124-2 0  9993
2 69194  53.1574 216.7172 0000748  99.8371 260.2736 15.80926696  4314
STARLINK-37166          
1 69195U 26114P   26165.27911468  .00207792  00000+0  10282-2 0  9993
2 69195  53.1573 216.7062 0001261  68.4620 291.6537 15.80935337  4311
STARLINK-36933          
1 69196U 26114Q   26165.27985866  .00115416  00000+0  58083-3 0  9990
2 69196  53.1576 216.7115 0001093  90.6705 269.4443 15.80860781  4317
STARLINK-37419          
1 69197U 26114R   26165.27836434  .00119423  00000+0  59919-3 0  9998
2 69197  53.1575 216.7012 0001269 104.7952 255.3212 15.80911524  4319
STARLINK-37321          
1 69198U 26114S   26165.21439577  .00171760  00000+0  85433-3 0  9992
2 69198  53.1577 217.0135 0001934  57.0998 303.0211 15.80928838  4306
STARLINK-37406          
1 69199U 26114T   26165.27686334  .00268307  00000+0  13151-2 0  9995
2 69199  53.1574 216.6911 0001996  43.0159 317.1020 15.80971242  4315
STARLINK-37761          
1 69200U 26114U   26165.27611087  .00166291  00000+0  82729-3 0  9998
2 69200  53.1575 216.6859 0001369 118.7736 241.3424 15.80942028  4311
STARLINK-37754          
1 69201U 26114V   26165.27516766  .00162408  00000+0  80865-3 0  9992
2 69201  53.1574 216.6797 0001285 109.9263 250.1899 15.80935800  4310
STARLINK-37649          
1 69202U 26114W   26165.27461239  .00100495  00000+0  50595-3 0  9992
2 69202  53.1576 216.6757 0001092 112.3173 247.7966 15.80909085  4316
STARLINK-37604          
1 69203U 26114X   26165.27386055  .00172431  00000+0  85734-3 0  9997
2 69203  53.1575 216.6711 0001150 110.1272 249.9874 15.80935858  4316
STARLINK-37669          
1 69204U 26114Y   26165.27311184  .00150747  00000+0  75219-3 0  9992
2 69204  53.1576 216.6654 0001026  96.0032 264.1107 15.80926367  4315
STARLINK-37691          
1 69205U 26114Z   26165.28240132  .00200475  00000+0  11280-2 0  9999
2 69205  53.1578 216.7267 0001598 112.8804 247.2387 15.78124636  4315
STARLINK-37671          
1 69206U 26114AA  26165.25002315 -.00076643  00000+0 -44066-3 0  9995
2 69206  53.1589 216.8039 0001478  64.0789 153.5132 15.78096963  4344
STARLINK-37647          
1 69207U 26114AB  26165.27236233  .00165270  00000+0  82277-3 0  9995
2 69207  53.1577 216.6605 0001309  91.1633 268.9539 15.80930237  4314
STARLINK-37562          
1 69208U 26114AC  26165.27713351  .00254886  00000+0  14228-2 0  9999
2 69208  53.1587 216.6919 0002085  46.2591 313.8603 15.78142825  4317
STARLINK-37682          
1 69209U 26114AD  26165.26936333  .00103022  00000+0  51864-3 0  9999
2 69209  53.1578 216.6392 0001325  91.6002 268.5172 15.80900284  4311
STARLINK-37402          
1 69210U 26114AE  26165.26861071  .00296800  00000+0  14483-2 0  9999
2 69210  53.1577 216.6349 0002227  35.1777 324.9392 15.80991254  4316
STARLINK-37613          
1 69211U 26115A   26165.25002315  .00003220  00000+0  60847-4 0  9997
2 69211  97.2837 182.3359 0001036  90.5542  39.7910 15.49188614  4227
STARLINK-37713          
1 69212U 26115B   26165.25002315 -.02583892  00000+0 -44180-1 0  9999
2 69212  97.2839 182.4605 0001081  87.0333 329.1054 15.54645687  4223
STARLINK-37716          
1 69213U 26115C   26165.25002315 -.02550896  00000+0 -37080-1 0  9999
2 69213  97.2838 182.5056 0001659  66.6422  94.2988 15.59535082  4225
STARLINK-37620          
1 69214U 26115D   26165.25002315  .00001561  00000+0  30376-4 0  9990
2 69214  97.2835 182.3010 0000618  90.5933 320.2387 15.49174093  4223
STARLINK-37700          
1 69215U 26115E   26165.21433573  .00052813  00000+0  96550-3 0  9992
2 69215  97.2834 182.1764 0001247  91.7907 268.3487 15.49210590  4192
STARLINK-37766          
1 69216U 26115F   26165.25002315 -.02472127  00000+0 -29946-1 0  9994
2 69216  97.2840 182.5309 0001673  83.8708 140.9351 15.64087559  4226
STARLINK-37763          
1 69217U 26115G   26165.25002315 -.02487859  00000+0 -37140-1 0  9998
2 69217  97.2847 182.4987 0001621  81.2267  66.5029 15.58736371  4221
STARLINK-37724          
1 69218U 26115H   26165.25002315 -.02592137  00000+0 -26561-1 0  9990
2 69218  97.2837 182.5539 0001331  96.1808 186.9330 15.68403198  4220
