OBJECT_NAME,OBJECT_ID,EPOCH,MEAN_MOTION,ECCENTRICITY,INCLINATION,RA_OF_ASC_NODE,ARG_OF_PERICENTER,MEAN_ANOMALY,EPHEMERIS_TYPE,CLASSIFICATION_TYPE,NORAD_CAT_ID,ELEMENT_SET_NO,REV_AT_EPOCH,BSTAR,MEAN_MOTION_DOT,MEAN_MOTION_DDOT
STARLINK-37440,2026-114H,2026-06-14T07:36:36.803232,15.80922591,.00009788,53.1582,216.2184,71.9266,288.1863,0,U,69189,999,432,.77237456E-3,.154859E-2,0
STARLINK-37282,2026-114J,2026-06-14T05:31:50.249280,15.78100100,.00013495,53.1583,217.1198,105.4449,254.6722,0,U,69190,999,430,.85573874E-3,.150868E-2,0
STARLINK-37422,2026-114K,2026-06-13T15:34:29.425152,15.80978335,.00013785,53.1576,219.8873,50.7013,309.4132,0,U,69191,999,421,.14268784E-2,.292068E-2,0
STARLINK-37424,2026-114L,2026-06-14T07:03:02.588544,15.79578695,.00032184,53.1578,216.8044,2.8266,357.2773,0,U,69192,999,431,.15411079E-1,.3319453E-1,0
STARLINK-36666,2026-114M,2026-06-14T00:00:02.000160,15.80829294,.00010632,53.1576,218.1310,91.0304,107.0057,0,U,69193,999,430,.37329711E-3,.73457E-3,0
STARLINK-37355,2026-114N,2026-06-14T06:44:05.034912,15.80926696,.00007486,53.1574,216.7172,99.8371,260.2736,0,U,69194,999,431,.10124223E-2,.204428E-2,0
STARLINK-37166,2026-114P,2026-06-14T06:41:55.508352,15.80935337,.00012615,53.1573,216.7062,68.4620,291.6537,0,U,69195,999,431,.10282196E-2,.207792E-2,0
STARLINK-36933,2026-114Q,2026-06-14T06:42:59.788224,15.80860781,.00010934,53.1576,216.7115,90.6705,269.4443,0,U,69196,999,431,.58083315E-3,.115416E-2,0
STARLINK-37419,2026-114R,2026-06-14T06:40:50.678976,15.80911524,.00012699,53.1575,216.7012,104.7952,255.3212,0,U,69197,999,431,.59919458E-3,.119423E-2,0
STARLINK-37321,2026-114S,2026-06-14T05:08:43.794528,15.80928838,.00019342,53.1577,217.0135,57.0998,303.0211,0,U,69198,999,430,.85433299E-3,.17176E-2,0
STARLINK-37406,2026-114T,2026-06-14T06:38:40.992576,15.80971242,.00019968,53.1574,216.6911,43.0159,317.1020,0,U,69199,999,431,.13151375E-2,.268307E-2,0
STARLINK-37761,2026-114U,2026-06-14T06:37:35.979168,15.80942028,.00013695,53.1575,216.6859,118.7736,241.3424,0,U,69200,999,431,.8272887E-3,.166291E-2,0
STARLINK-37754,2026-114V,2026-06-14T06:36:14.485824,15.80935800,.00012851,53.1574,216.6797,109.9263,250.1899,0,U,69201,999,431,.8086497E-3,.162408E-2,0
STARLINK-37649,2026-114W,2026-06-14T06:35:26.510496,15.80909085,.00010923,53.1576,216.6757,112.3173,247.7966,0,U,69202,999,431,.50594661E-3,.100495E-2,0
STARLINK-37604,2026-114X,2026-06-14T06:34:21.551520,15.80935858,.00011506,53.1575,216.6711,110.1272,249.9874,0,U,69203,999,431,.85734048E-3,.172431E-2,0
STARLINK-37669,2026-114Y,2026-06-14T06:33:16.862976,15.80926367,.00010261,53.1576,216.6654,96.0032,264.1107,0,U,69204,999,431,.7521863E-3,.150747E-2,0
STARLINK-37691,2026-114Z,2026-06-14T06:46:39.474048,15.78124636,.00015988,53.1578,216.7267,112.8804,247.2387,0,U,69205,999,431,.11280142E-2,.200475E-2,0
STARLINK-37671,2026-114AA,2026-06-14T06:00:02.000160,15.78096963,.00014789,53.1589,216.8039,64.0789,153.5132,0,U,69206,999,434,-.4406562E-3,-.76643E-3,0
STARLINK-37647,2026-114AB,2026-06-14T06:32:12.105312,15.80930237,.0001309,53.1577,216.6605,91.1633,268.9539,0,U,69207,999,431,.82277255E-3,.16527E-2,0
STARLINK-37562,2026-114AC,2026-06-14T06:39:04.335264,15.78142825,.0002085,53.1587,216.6919,46.2591,313.8603,0,U,69208,999,431,.14228095E-2,.254886E-2,0
STARLINK-37682,2026-114AD,2026-06-14T06:27:52.991712,15.80900284,.00013252,53.1578,216.6392,91.6002,268.5172,0,U,69209,999,431,.51863759E-3,.103022E-2,0
STARLINK-37402,2026-114AE,2026-06-14T06:26:47.965344,15.80991254,.00022278,53.1577,216.6349,35.1777,324.9392,0,U,69210,999,431,.14482562E-2,.2968E-2,0
STARLINK-37613,2026-115A,2026-06-14T06:00:02.000160,15.49188614,.0001036,97.2837,182.3359,90.5542,39.7910,0,U,69211,999,422,.60846764E-4,.322E-4,0
STARLINK-37713,2026-115B,2026-06-14T06:00:02.000160,15.54645687,.00010812,97.2839,182.4605,87.0333,329.1054,0,U,69212,999,422,-.44180013E-1,-.2583892E-1,0
STARLINK-37716,2026-115C,2026-06-14T06:00:02.000160,15.59535082,.00016591,97.2838,182.5056,66.6422,94.2988,0,U,69213,999,422,-.37079797E-1,-.2550896E-1,0
STARLINK-37620,2026-115D,2026-06-14T06:00:02.000160,15.49174093,.00006181,97.2835,182.3010,90.5933,320.2387,0,U,69214,999,422,.30376087E-4,.1561E-4,0
STARLINK-37700,2026-115E,2026-06-14T05:08:38.607072,15.49210590,.00012479,97.2834,182.1764,91.7907,268.3487,0,U,69215,999,419,.96550234E-3,.52813E-3,0
STARLINK-37766,2026-115F,2026-06-14T06:00:02.000160,15.64087559,.00016732,97.2840,182.5309,83.8708,140.9351,0,U,69216,999,422,-.29945699E-1,-.2472127E-1,0
STARLINK-37763,2026-115G,2026-06-14T06:00:02.000160,15.58736371,.00016216,97.2847,182.4987,81.2267,66.5029,0,U,69217,999,422,-.37139612E-1,-.2487859E-1,0
STARLINK-37724,2026-115H,2026-06-14T06:00:02.000160,15.68403198,.00013313,97.2837,182.5539,96.1808,186.9330,0,U,69218,999,422,-.26561461E-1,-.2592137E-1,0
